{
  "norad_id": 48397,
  "name": "STARLINK-2590",
  "history": [
    {
      "epoch": "2026-03-28T21:48:33.877152Z",
      "apogee_km": 475.68752281771594,
      "perigee_km": 474.4155710234081,
      "latitude_deg": -1.1355326474261568e-05,
      "longitude_deg": 89.90552015414809,
      "height_km": 475.83084180439266,
      "semi_major_axis_km": 6853.188546920562,
      "eccentricity": 9.28e-05,
      "inclination_deg": 53.1573,
      "raan_deg": 243.3691,
      "arg_perigee_deg": 79.2158,
      "mean_anomaly_deg": 280.8947,
      "mean_motion_rev_day": 15.30254768
    }
  ]
}