{"fetched_at":"2026-03-30T06:02:59Z","count":15439,"tles":[{"name":"STARLINK-2590","line1":"1 48397U 21038AW  26087.90872543  .00017309  00000+0  59415-3 0  9992","line2":"2 48397  53.1573 243.3691 0000928  79.2158 280.8947 15.30254768271601","category":"Starlink"}]}